{
    "links": {
        "self": "http://www.neowsapp.com/rest/v1/neo/3727275?api_key=iIulBulltgU6a56xZRHN4H3l9WmuAYTsLGpBGhQ2"
    },
    "id": "3727275",
    "neo_reference_id": "3727275",
    "name": "(2015 RC37)",
    "designation": "2015 RC37",
    "nasa_jpl_url": "http://ssd.jpl.nasa.gov/sbdb.cgi?sstr=3727275",
    "absolute_magnitude_h": 24.7,
    "estimated_diameter": {
        "kilometers": {
            "estimated_diameter_min": 0.0305179233,
            "estimated_diameter_max": 0.0682401509
        },
        "meters": {
            "estimated_diameter_min": 30.5179232594,
            "estimated_diameter_max": 68.2401509401
        },
        "miles": {
            "estimated_diameter_min": 0.0189629525,
            "estimated_diameter_max": 0.0424024508
        },
        "feet": {
            "estimated_diameter_min": 100.1244233463,
            "estimated_diameter_max": 223.8850168104
        }
    },
    "is_potentially_hazardous_asteroid": false,
    "close_approach_data": [
        {
            "close_approach_date": "1959-08-02",
            "close_approach_date_full": "1959-Aug-02 09:13",
            "epoch_date_close_approach": -328718820000,
            "relative_velocity": {
                "kilometers_per_second": "10.938314465",
                "kilometers_per_hour": "39377.9320740659",
                "miles_per_hour": "24467.9156267994"
            },
            "miss_distance": {
                "astronomical": "0.4193285096",
                "lunar": "163.1187902344",
                "kilometers": "62730651.866434552",
                "miles": "38979019.5886467376"
            },
            "orbiting_body": "Earth"
        },
        {
            "close_approach_date": "1962-09-02",
            "close_approach_date_full": "1962-Sep-02 20:28",
            "epoch_date_close_approach": -231305520000,
            "relative_velocity": {
                "kilometers_per_second": "11.4897385025",
                "kilometers_per_hour": "41363.0586089669",
                "miles_per_hour": "25701.3960562217"
            },
            "miss_distance": {
                "astronomical": "0.3930380503",
                "lunar": "152.8918015667",
                "kilometers": "58797655.153832861",
                "miles": "36535168.7543050418"
            },
            "orbiting_body": "Earth"
        },
        {
            "close_approach_date": "1987-08-10",
            "close_approach_date_full": "1987-Aug-10 15:49",
            "epoch_date_close_approach": 555608940000,
            "relative_velocity": {
                "kilometers_per_second": "7.1786217295",
                "kilometers_per_hour": "25843.0382260955",
                "miles_per_hour": "16057.8589466536"
            },
            "miss_distance": {
                "astronomical": "0.270718586",
                "lunar": "105.309529954",
                "kilometers": "40498923.83501182",
                "miles": "25164864.360810316"
            },
            "orbiting_body": "Earth"
        },
        {
            "close_approach_date": "2015-08-19",
            "close_approach_date_full": "2015-Aug-19 08:35",
            "epoch_date_close_approach": 1439973300000,
            "relative_velocity": {
                "kilometers_per_second": "4.8663080517",
                "kilometers_per_hour": "17518.7089859774",
                "miles_per_hour": "10885.4444807591"
            },
            "miss_distance": {
                "astronomical": "0.1591382757",
                "lunar": "61.9047892473",
                "kilometers": "23806747.080192759",
                "miles": "14792826.6831437142"
            },
            "orbiting_body": "Earth"
        },
        {
            "close_approach_date": "2018-12-11",
            "close_approach_date_full": "2018-Dec-11 12:47",
            "epoch_date_close_approach": 1544532420000,
            "relative_velocity": {
                "kilometers_per_second": "8.8278227685",
                "kilometers_per_hour": "31780.1619665622",
                "miles_per_hour": "19746.9567508342"
            },
            "miss_distance": {
                "astronomical": "0.0777788274",
                "lunar": "30.2559638586",
                "kilometers": "11635546.910137638",
                "miles": "7229993.5907018844"
            },
            "orbiting_body": "Mars"
        }
    ],
    "orbital_data": {
        "orbit_id": "11",
        "orbit_determination_date": "2018-02-10 07:07:00",
        "first_observation_date": "2015-08-11",
        "last_observation_date": "2015-10-01",
        "data_arc_in_days": 51,
        "observations_used": 33,
        "orbit_uncertainty": "6",
        "minimum_orbit_intersection": ".156098",
        "jupiter_tisserand_invariant": "3.574",
        "epoch_osculation": "2459000.5",
        "eccentricity": ".4557731533628085",
        "semi_major_axis": "2.132269644408136",
        "inclination": "5.732822416596091",
        "ascending_node_longitude": "171.6168736676925",
        "orbital_period": "1137.264841601307",
        "perihelion_distance": "1.160438384756446",
        "perihelion_argument": "152.94223833",
        "aphelion_distance": "3.104100904059826",
        "perihelion_time": "2459524.335586482136",
        "mean_anomaly": "194.1803912024212",
        "mean_motion": ".3165489574909464",
        "equinox": "J2000",
        "orbit_class": {
            "orbit_class_type": "AMO",
            "orbit_class_description": "Near-Earth asteroid orbits similar to that of 1221 Amor",
            "orbit_class_range": "1.017 AU < q (perihelion) < 1.3 AU"
        }
    },
    "is_sentry_object": false
}